SAUDISAT 1C             
1 27607U 02058C   23066.81526511  .00005528  00000+0  76622-3 0  9998
2 27607  64.5549 215.6323 0076926 244.5546 114.7584 14.76871050 87250
SAUDISAT 2              
1 28371U 04025F   23067.35580953  .00001266  00000+0  30500-3 0  9993
2 28371  98.4166  30.1902 0026174  15.4223 344.7715 14.54793500991658
SAUDISAT 3              
1 31118U 07012B   23067.38082486  .00001149  00000+0  20133-3 0  9997
2 31118  98.0030  13.5375 0016494  76.6765 283.6279 14.69554294851911
PISAT                   
1 41784U 16059B   23066.80734194  .00003250  00000+0  61855-3 0  9995
2 41784  97.8830 104.4751 0032605  57.9670 302.4693 14.64397004344223
FLYING LAPTOP           
1 42831U 17042G   23067.14880039  .00003398  00000+0  33442-3 0  9994
2 42831  97.3984 270.9614 0013058 200.4111 159.6587 14.92640949307419
SALSAT                  
1 46495U 20068K   23066.41147293  .00010990  00000+0  74606-3 0  9996
2 46495  97.7588  13.4927 0017642 103.9849 256.3341 15.06451606133740
